CAS-2T & KS-1Q          
1 41847U 16066G   21165.90073685  .00000106  00000-0  26852-4 0  9990
2 41847  98.6011 225.0213 0364365 227.8912 129.0769 14.38195591241517
NAYIF-1 (EO-88)         
1 42017U 17008BX  21165.87636563  .00002360  00000-0  88525-4 0  9992
2 42017  97.3153 233.5222 0007664 113.0879 247.1169 15.28182316240862
ZHUHAI-1 02 (CAS-4B)    
1 42759U 17034B   21166.51602711  .00000314  00000-0  32169-4 0  9994
2 42759  43.0164 191.7345 0007725 159.6054 327.1866 15.10227660220858
ZHUHAI-1 01 (CAS-4A)    
1 42761U 17034D   21166.44287101  .00000239  00000-0  27610-4 0  9992
2 42761  43.0161 191.1918 0008133 160.2743 336.8039 15.10313966220848
MAX VALIER SAT          
1 42778U 17036P   21166.13660754  .00001330  00000-0  58311-4 0  9992
2 42778  97.2548 214.8236 0011970 175.8049 184.3291 15.23610352220935
RADFXSAT (FOX-1B)       
1 43017U 17073E   21166.30442229  .00000633  00000-0  54728-4 0  9997
2 43017  97.7072  70.3764 0253737 307.6586  50.1848 14.79564074192801
FOX-1D (AO-92)          
1 43137U 18004AC  21166.43029006  .00001469  00000-0  61265-4 0  9995
2 43137  97.4066 240.4821 0007925 208.4188 151.6619 15.25259151190349
DIWATA-2B               
1 43678U 18084H   21166.57541815  .00000260  00000-0  31550-4 0  9997
2 43678  97.9238 291.8445 0011179  61.6903 298.5470 14.91754753143150
ES'HAIL 2               
1 43700U 18090A   21165.87410400  .00000153  00000-0  00000-0 0  9990
2 43700   0.0149 305.0489 0001033 159.1707 139.6606  1.00273601  9343
FOX-1CLIFF (AO-95)      
1 43770U 18099N   21166.17480210 -.00000019  00000-0  34479-5 0  9990
2 43770  97.6648 236.4122 0015886  67.9941 292.2965 14.95327061138114
ITASAT 1                
1 43786U 18099AE  21165.75995037  .00000306  00000-0  32591-4 0  9998
2 43786  97.6671 236.6827 0016605  62.9478 297.3436 14.95622617138081
JY1SAT (JO-97)          
1 43803U 18099AX  21165.72425694  .00000387  00000-0  39621-4 0  9992
2 43803  97.6627 236.3999 0016306  63.1504 297.1382 14.95865134138081
UWE-4                   
1 43880U 18111E   21165.70970126  .00000213  00000-0  23560-4 0  9998
2 43880  97.6879  73.4899 0013719 109.5267 250.7438 14.96875241134679
PSAT2 (NO-104)          
1 44354U 19036R   21166.12894133  .00010156  00000-0  13151-3 0  9993
2 44354  28.5291 142.5404 0325579 250.8080 105.7010 15.13442137108614
BRICSAT2 (NO-103)       
1 44355U 19036S   21166.12178461  .00029909  00000-0  32791-3 0  9990
2 44355  28.5264  97.9330 0264023 323.5267  34.7607 15.29420629109069
JAISAT-1                
1 44419U 19038F   21165.86192708  .00001219  00000-0  71074-4 0  9995
2 44419  97.5883 130.5720 0020090 325.5646  34.4283 15.13766770107403
DUCHIFAT-3              
1 44854U 19089C   21166.19632075  .00000517  00000-0  47707-4 0  9993
2 44854  36.9645 113.9809 0006970 122.2564 237.8860 14.99501349 82767
RS-44 & BREEZE-KM R/B   
1 44909U 19096E   21165.89131493  .00000034  00000-0  81934-4 0  9990
2 44909  82.5205 114.5151 0218547  99.0142 263.5761 12.79710213 68490
ORBITAL FACTORY 2 (OF-2)
1 45113U 19071C   21165.93267656  .00002519  00000-0  82151-4 0  9999
2 45113  51.6432  49.7349 0011169 285.5221  74.4528 15.35762374 76787
HUSKYSAT-1 (HO-107)     
1 45119U 19071J   21165.94412757  .00002990  00000-0  95375-4 0  9995
2 45119  51.6425  49.0567 0010583 281.8230  78.1566 15.35787911 76785
BY70-2                  
1 45857U 20042B   21166.47725533  .00001379  00000-0  20268-3 0  9990
2 45857  97.9841 242.2446 0010281 211.3657 148.6948 14.77028971 51259
SALSAT                  
1 46495U 20068K   21165.93194480 -.00000210  00000-0 -10807-4 0  9992
2 46495  97.6951 103.4431 0018988  80.4529 279.8835 15.03457351 38956
BY70-3                  
1 46839U 20079N   21166.49662641  .00003687  00000-0  11556-3 0  9997
2 46839  97.2400 240.3907 0006320 201.0153 284.3592 15.33676529 33907
RADFXSAT-2 (AO-109)     
1 47311U 21002C   21165.92682451  .00001064  00000-0  58115-4 0  9998
2 47311  60.6846 300.6539 0036349  46.7004 313.7104 15.21648558 22480
UVSQ-SAT                
1 47438U 21006AB  21165.86870688  .00000942  00000-0  56683-4 0  9998
2 47438  97.4873 227.1388 0014416 105.7109 254.5713 15.13136453 21660
DIY-1 (ARDUIQUBE)       
1 47963U 21022AH  21165.97172829  .00001484  00000-0  10230-3 0  9992
2 47963  97.5586  68.3495 0018559 318.5424  41.4395 15.07242420 11523
